MALLIGYONG-1            
1 58400U 23179A   24114.48847861  .00011913  00000+0  52222-3 0  9997
2 58400  97.4114   2.1595 0011348  95.2285 265.0246 15.22082541 23409
